{
  "norad_id": 59329,
  "name": "STARLINK-31493",
  "history": [
    {
      "epoch": "2026-03-28T16:08:39.640128Z",
      "apogee_km": 483.57445444477435,
      "perigee_km": 482.5395119443492,
      "latitude_deg": -1.3006240008764462e-05,
      "longitude_deg": 11.498758424266475,
      "height_km": 482.8284880079734,
      "semi_major_axis_km": 6861.193983194562,
      "eccentricity": 7.542e-05,
      "inclination_deg": 43.0011,
      "raan_deg": 79.7537,
      "arg_perigee_deg": 270.5269,
      "mean_anomaly_deg": 89.5496,
      "mean_motion_rev_day": 15.27577366
    },
    {
      "epoch": "2026-03-28T23:59:26.469888Z",
      "apogee_km": 483.60229858367893,
      "perigee_km": 482.4990196080953,
      "latitude_deg": -3.350519789324421e-05,
      "longitude_deg": -108.3653253621778,
      "height_km": 482.8223639859336,
      "semi_major_axis_km": 6861.187659095886,
      "eccentricity": 8.04e-05,
      "inclination_deg": 43.0014,
      "raan_deg": 77.907,
      "arg_perigee_deg": 270.4819,
      "mean_anomaly_deg": 89.594,
      "mean_motion_rev_day": 15.27579478
    },
    {
      "epoch": "2026-03-29T23:31:46.718112Z",
      "apogee_km": 483.27555505625514,
      "perigee_km": 482.6402176697775,
      "latitude_deg": 1.676304091086047e-05,
      "longitude_deg": -107.9542495060956,
      "height_km": 482.4993334837938,
      "semi_major_axis_km": 6861.0948863630165,
      "eccentricity": 4.63e-05,
      "inclination_deg": 43.0007,
      "raan_deg": 72.3691,
      "arg_perigee_deg": 317.5452,
      "mean_anomaly_deg": 42.5364,
      "mean_motion_rev_day": 15.27610461
    },
    {
      "epoch": "2026-03-30T05:48:24.937920Z",
      "apogee_km": 483.46356304794244,
      "perigee_km": 482.65531410747826,
      "latitude_deg": 3.678170796362821e-05,
      "longitude_deg": 156.15142406737044,
      "height_km": 482.7294174125198,
      "semi_major_axis_km": 6861.19643857771,
      "eccentricity": 5.89e-05,
      "inclination_deg": 43.0011,
      "raan_deg": 70.8918,
      "arg_perigee_deg": 285.224,
      "mean_anomaly_deg": 74.8547,
      "mean_motion_rev_day": 15.27576546
    },
    {
      "epoch": "2026-03-30T08:56:43.591200Z",
      "apogee_km": 483.5613501131702,
      "perigee_km": 482.548226533705,
      "latitude_deg": 4.694327507007443e-05,
      "longitude_deg": 108.20561883186153,
      "height_km": 482.7129964615015,
      "semi_major_axis_km": 6861.191788323437,
      "eccentricity": 7.383e-05,
      "inclination_deg": 43.0012,
      "raan_deg": 70.1526,
      "arg_perigee_deg": 283.4753,
      "mean_anomaly_deg": 76.6017,
      "mean_motion_rev_day": 15.27578099
    },
    {
      "epoch": "2026-03-30T23:04:08.467968Z",
      "apogee_km": 483.43489343335295,
      "perigee_km": 482.6861995570798,
      "latitude_deg": -2.6636321029179423e-05,
      "longitude_deg": -107.55184684628686,
      "height_km": 482.7350634485487,
      "semi_major_axis_km": 6861.197546495217,
      "eccentricity": 5.456e-05,
      "inclination_deg": 42.9999,
      "raan_deg": 66.8289,
      "arg_perigee_deg": 285.7185,
      "mean_anomaly_deg": 74.3606,
      "mean_motion_rev_day": 15.27576176
    },
    {
      "epoch": "2026-03-31T14:45:42.135264Z",
      "apogee_km": 483.63114869250603,
      "perigee_km": 482.48121271541913,
      "latitude_deg": 1.4374663103876943e-05,
      "longitude_deg": 12.720841710554428,
      "height_km": 482.870558894969,
      "semi_major_axis_km": 6861.193180703962,
      "eccentricity": 8.38e-05,
      "inclination_deg": 43.0003,
      "raan_deg": 63.1363,
      "arg_perigee_deg": 266.1967,
      "mean_anomaly_deg": 93.8789,
      "mean_motion_rev_day": 15.27577634
    },
    {
      "epoch": "2026-04-01T14:18:01.260288Z",
      "apogee_km": 483.58321712644374,
      "perigee_km": 482.42231227825505,
      "latitude_deg": 4.9003994025612844e-05,
      "longitude_deg": 13.134994479468237,
      "height_km": 482.71330385633064,
      "semi_major_axis_km": 6861.139764702349,
      "eccentricity": 8.46e-05,
      "inclination_deg": 43.0011,
      "raan_deg": 57.5968,
      "arg_perigee_deg": 276.5093,
      "mean_anomaly_deg": 83.5663,
      "mean_motion_rev_day": 15.27595473
    }
  ]
}